{"fetched_at":"2026-07-18T17:29:51.114Z","source":"https://celestrak.org/NORAD/elements/gp.php?NAME=FIREFLY&FORMAT=JSON","constellation":"pixxel","records":[{"OBJECT_NAME":"FIREFLY-1","OBJECT_ID":"2025-009CW","EPOCH":"2026-07-18T06:19:38.962560","CLASSIFICATION_TYPE":"U","MEAN_MOTION":14.92744576,"ECCENTRICITY":0.00028285,"INCLINATION":97.706,"RA_OF_ASC_NODE":276.7484,"ARG_OF_PERICENTER":209.6774,"MEAN_ANOMALY":150.4286,"EPHEMERIS_TYPE":0,"NORAD_CAT_ID":62701,"ELEMENT_SET_NO":999,"REV_AT_EPOCH":8195,"BSTAR":0.000034490488,"MEAN_MOTION_DOT":0.00000301,"MEAN_MOTION_DDOT":0},{"OBJECT_NAME":"FIREFLY-2","OBJECT_ID":"2025-009CZ","EPOCH":"2026-07-18T05:47:50.900640","CLASSIFICATION_TYPE":"U","MEAN_MOTION":14.92739341,"ECCENTRICITY":0.00061247,"INCLINATION":97.7016,"RA_OF_ASC_NODE":276.4948,"ARG_OF_PERICENTER":352.5705,"MEAN_ANOMALY":7.5423,"EPHEMERIS_TYPE":0,"NORAD_CAT_ID":62704,"ELEMENT_SET_NO":999,"REV_AT_EPOCH":8195,"BSTAR":0.000059677756,"MEAN_MOTION_DOT":0.00000561,"MEAN_MOTION_DDOT":0},{"OBJECT_NAME":"FIREFLY-3","OBJECT_ID":"2025-009DF","EPOCH":"2026-07-18T05:16:08.980032","CLASSIFICATION_TYPE":"U","MEAN_MOTION":14.92803538,"ECCENTRICITY":0.00046298,"INCLINATION":97.7051,"RA_OF_ASC_NODE":276.7348,"ARG_OF_PERICENTER":66.5633,"MEAN_ANOMALY":293.6073,"EPHEMERIS_TYPE":0,"NORAD_CAT_ID":62710,"ELEMENT_SET_NO":999,"REV_AT_EPOCH":8196,"BSTAR":0.000069645051,"MEAN_MOTION_DOT":0.00000665,"MEAN_MOTION_DDOT":0}]}
