FIREFLY-1               
1 62701U 25009CW  26199.26364540  .00000301  00000+0  34490-4 0  9996
2 62701  97.7060 276.7484 0002828 209.6774 150.4286 14.92744576 81958
FIREFLY-2               
1 62704U 25009CZ  26199.24156135  .00000561  00000+0  59678-4 0  9999
2 62704  97.7016 276.4948 0006124 352.5705   7.5423 14.92739341 81958
FIREFLY-3               
1 62710U 25009DF  26199.21954838  .00000665  00000+0  69645-4 0  9999
2 62710  97.7051 276.7348 0004629  66.5633 293.6073 14.92803538 81961
